start=new Date('2023-02-26T00:00:00.000Z').valueOf();
sats=[{"CENTER_NAME":"EARTH","OBJECT_ID":"2022-177E","RCS_SIZE":"LARGE","LAUNCH_DATE":"2022-12-28","GP_ID":"226915370","TLE_LINE2":"2 54824  43.0029  33.6473 0001610 275.2737  84.7923 15.04491626 10293","REF_FRAME":"TEME","PERIAPSIS":"551.953","TLE_LINE1":"1 54824U 22177E   23056.77516227 -.00000618  00000-0 -28865-4 0  9995","COUNTRY_CODE":"US","EPOCH":"2023-02-25T18:36:14.020128","CLASSIFICATION_TYPE":"U","FILE":"3839003","OBJECT_NAME":"STARLINK-4643","MEAN_MOTION_DDOT":"0.0000000000000","SITE":"AFETR","ARG_OF_PERICENTER":"275.2737","EPHEMERIS_TYPE":"0","ECCENTRICITY":"0.00016100","BSTAR":"-0.00002886500000","RA_OF_ASC_NODE":"33.6473","OBJECT_TYPE":"PAYLOAD","APOAPSIS":"554.185","MEAN_MOTION":"15.04491626","MEAN_MOTION_DOT":"-0.00000618","ELEMENT_SET_NO":"999","NORAD_CAT_ID":"54824","SEMIMAJOR_AXIS":"6931.204","DECAY_DATE":null,"TIME_SYSTEM":"UTC","MEAN_ELEMENT_THEORY":"SGP4","REV_AT_EPOCH":"1029","INCLINATION":"43.0029","PERIOD":"95.713","MEAN_ANOMALY":"84.7923"},{"MEAN_ELEMENT_THEORY":"SGP4","TIME_SYSTEM":"UTC","DECAY_DATE":null,"SEMIMAJOR_AXIS":"6931.202","NORAD_CAT_ID":"54825","ELEMENT_SET_NO":"999","MEAN_MOTION_DOT":"-0.00000645","MEAN_MOTION":"15.04492005","MEAN_ANOMALY":"85.2876","PERIOD":"95.713","INCLINATION":"43.0038","REV_AT_EPOCH":"1027","OBJECT_TYPE":"PAYLOAD","RA_OF_ASC_NODE":"34.3330","BSTAR":"-0.00003076000000","EPHEMERIS_TYPE":"0","ECCENTRICITY":"0.00011490","ARG_OF_PERICENTER":"274.7836","SITE":"AFETR","MEAN_MOTION_DDOT":"0.0000000000000","OBJECT_NAME":"STARLINK-4801","APOAPSIS":"553.864","EPOCH":"2023-02-25T15:17:22.998336","COUNTRY_CODE":"US","TLE_LINE1":"1 54825U 22177F   23056.63707174 -.00000645  00000-0 -30760-4 0  9991","FILE":"3839003","CLASSIFICATION_TYPE":"U","GP_ID":"226915620","LAUNCH_DATE":"2022-12-28","RCS_SIZE":"LARGE","OBJECT_ID":"2022-177F","CENTER_NAME":"EARTH","PERIAPSIS":"552.271","REF_FRAME":"TEME","TLE_LINE2":"2 54825  43.0038  34.3330 0001149 274.7836  85.2876 15.04492005 10278"},{"MEAN_ANOMALY":"102.3521","PERIOD":"95.713","INCLINATION":"43.0022","REV_AT_EPOCH":"1021","MEAN_ELEMENT_THEORY":"SGP4","DECAY_DATE":null,"TIME_SYSTEM":"UTC","ELEMENT_SET_NO":"999","SEMIMAJOR_AXIS":"6931.200","NORAD_CAT_ID":"54826","MEAN_MOTION":"15.04492966","MEAN_MOTION_DOT":"0.00018232","APOAPSIS":"554.117","BSTAR":"0.00129230000000","RA_OF_ASC_NODE":"36.4746","OBJECT_TYPE":"PAYLOAD","EPHEMERIS_TYPE":"0","ECCENTRICITY":"0.00015190","MEAN_MOTION_DDOT":"0.0000000000000","SITE":"AFETR","ARG_OF_PERICENTER":"257.7152","OBJECT_NAME":"STARLINK-5107","CLASSIFICATION_TYPE":"U","FILE":"3837605","COUNTRY_CODE":"US","EPOCH":"2023-02-25T05:38:27.598560","TLE_LINE1":"1 54826U 22177G   23056.23504165  .00018232  00000-0  12923-2 0  9991","REF_FRAME":"TEME","PERIAPSIS":"552.012","TLE_LINE2":"2 54826  43.0022  36.4746 0001519 257.7152 102.3521 15.04492966 10217","LAUNCH_DATE":"2022-12-28","GP_ID":"226860278","RCS_SIZE":"LARGE","OBJECT_ID":"2022-177G","CENTER_NAME":"EARTH"},{"CLASSIFICATION_TYPE":"U","FILE":"3837605","COUNTRY_CODE":"US","EPOCH":"2023-02-25T08:40:49.679040","TLE_LINE1":"1 54827U 22177H   23056.36168610  .00006586  00000-0  47690-3 0  9996","REF_FRAME":"TEME","PERIAPSIS":"552.069","TLE_LINE2":"2 54827  43.0017  35.7034 0001435 259.4164 100.6517 15.04493404 10240","LAUNCH_DATE":"2022-12-28","GP_ID":"226859540","RCS_SIZE":"LARGE","OBJECT_ID":"2022-177H","CENTER_NAME":"EARTH","MEAN_ANOMALY":"100.6517","PERIOD":"95.713","INCLINATION":"43.0017","REV_AT_EPOCH":"1024","MEAN_ELEMENT_THEORY":"SGP4","DECAY_DATE":null,"TIME_SYSTEM":"UTC","ELEMENT_SET_NO":"999","NORAD_CAT_ID":"54827","SEMIMAJOR_AXIS":"6931.198","MEAN_MOTION":"15.04493404","MEAN_MOTION_DOT":"0.00006586","APOAPSIS":"554.058","BSTAR":"0.00047690000000","RA_OF_ASC_NODE":"35.7034","OBJECT_TYPE":"PAYLOAD","EPHEMERIS_TYPE":"0","ECCENTRICITY":"0.00014350","SITE":"AFETR","MEAN_MOTION_DDOT":"0.0000000000000","ARG_OF_PERICENTER":"259.4164","OBJECT_NAME":"STARLINK-5383"},{"DECAY_DATE":null,"TIME_SYSTEM":"UTC","MEAN_ELEMENT_THEORY":"SGP4","MEAN_MOTION_DOT":"0.00000194","MEAN_MOTION":"15.04486883","NORAD_CAT_ID":"54828","SEMIMAJOR_AXIS":"6931.218","ELEMENT_SET_NO":"999","PERIOD":"95.714","MEAN_ANOMALY":"78.3434","REV_AT_EPOCH":"1030","INCLINATION":"43.0043","ECCENTRICITY":"0.00017240","EPHEMERIS_TYPE":"0","RA_OF_ASC_NODE":"33.1433","OBJECT_TYPE":"PAYLOAD","BSTAR":"0.00002818900000","OBJECT_NAME":"STARLINK-5381","ARG_OF_PERICENTER":"281.7215","SITE":"AFETR","MEAN_MOTION_DDOT":"0.0000000000000","APOAPSIS":"554.278","EPOCH":"2023-02-25T19:44:25.188000","COUNTRY_CODE":"US","TLE_LINE1":"1 54828U 22177J   23056.82251375  .00000194  00000-0  28189-4 0  9991","CLASSIFICATION_TYPE":"U","FILE":"3839003","RCS_SIZE":"LARGE","GP_ID":"226915871","LAUNCH_DATE":"2022-12-28","CENTER_NAME":"EARTH","OBJECT_ID":"2022-177J","PERIAPSIS":"551.888","REF_FRAME":"TEME","TLE_LINE2":"2 54828  43.0043  33.1433 0001724 281.7215  78.3434 15.04486883 10300"},{"REF_FRAME":"TEME","PERIAPSIS":"552.161","TLE_LINE2":"2 54829  43.0028  35.8003 0001344 258.4688 101.6004 15.04483700  9259","LAUNCH_DATE":"2022-12-28","GP_ID":"226882209","RCS_SIZE":"LARGE","OBJECT_ID":"2022-177K","CENTER_NAME":"EARTH","FILE":"3838531","CLASSIFICATION_TYPE":"U","COUNTRY_CODE":"US","EPOCH":"2023-02-25T08:59:07.645920","TLE_LINE1":"1 54829U 22177K   23056.37439405 -.00000665  00000-0 -32162-4 0  9995","APOAPSIS":"554.025","BSTAR":"-0.00003216200000","OBJECT_TYPE":"PAYLOAD","RA_OF_ASC_NODE":"35.8003","ECCENTRICITY":"0.00013440","EPHEMERIS_TYPE":"0","SITE":"AFETR","MEAN_MOTION_DDOT":"0.0000000000000","ARG_OF_PERICENTER":"258.4688","OBJECT_NAME":"STARLINK-5380","MEAN_ANOMALY":"101.6004","PERIOD":"95.714","INCLINATION":"43.0028","REV_AT_EPOCH":"925","MEAN_ELEMENT_THEORY":"SGP4","DECAY_DATE":null,"TIME_SYSTEM":"UTC","ELEMENT_SET_NO":"999","SEMIMAJOR_AXIS":"6931.228","NORAD_CAT_ID":"54829","MEAN_MOTION":"15.04483700","MEAN_MOTION_DOT":"-0.00000665"},{"COUNTRY_CODE":"US","EPOCH":"2023-02-25T22:00:00.999936","TLE_LINE1":"1 54830U 22177L   23056.91667824  .00032950  00000-0  24435-2 0  9997","FILE":"3839003","CLASSIFICATION_TYPE":"U","RCS_SIZE":"LARGE","LAUNCH_DATE":"2022-12-28","GP_ID":"226916870","CENTER_NAME":"EARTH","OBJECT_ID":"2022-177L","REF_FRAME":"TEME","PERIAPSIS":"558.215","TLE_LINE2":"2 54830  43.0023  32.5227 0001295 259.0396 297.0123 15.02525601  1301","DECAY_DATE":null,"TIME_SYSTEM":"UTC","MEAN_ELEMENT_THEORY":"SGP4","MEAN_MOTION":"15.02525601","MEAN_MOTION_DOT":"0.00032950","ELEMENT_SET_NO":"999","NORAD_CAT_ID":"54830","SEMIMAJOR_AXIS":"6937.249","PERIOD":"95.839","MEAN_ANOMALY":"297.0123","REV_AT_EPOCH":"130","INCLINATION":"43.0023","ECCENTRICITY":"0.00012950","EPHEMERIS_TYPE":"0","BSTAR":"0.00244350000000","OBJECT_TYPE":"PAYLOAD","RA_OF_ASC_NODE":"32.5227","OBJECT_NAME":"STARLINK-5394","SITE":"AFETR","MEAN_MOTION_DDOT":"0.0000000000000","ARG_OF_PERICENTER":"259.0396","APOAPSIS":"560.012"},{"CENTER_NAME":"EARTH","OBJECT_ID":"2022-177M","RCS_SIZE":"LARGE","LAUNCH_DATE":"2022-12-28","GP_ID":"226882213","TLE_LINE2":"2 54831  43.0030  35.7209 0001401 267.8044  92.2639 15.04488984  9254","REF_FRAME":"TEME","PERIAPSIS":"552.106","TLE_LINE1":"1 54831U 22177M   23056.36392704 -.00000430  00000-0 -15654-4 0  9994","COUNTRY_CODE":"US","EPOCH":"2023-02-25T08:44:03.296256","FILE":"3838531","CLASSIFICATION_TYPE":"U","OBJECT_NAME":"STARLINK-5395","SITE":"AFETR","MEAN_MOTION_DDOT":"0.0000000000000","ARG_OF_PERICENTER":"267.8044","ECCENTRICITY":"0.00014010","EPHEMERIS_TYPE":"0","BSTAR":"-0.00001565400000","OBJECT_TYPE":"PAYLOAD","RA_OF_ASC_NODE":"35.7209","APOAPSIS":"554.048","MEAN_MOTION":"15.04488984","MEAN_MOTION_DOT":"-0.00000430","ELEMENT_SET_NO":"999","NORAD_CAT_ID":"54831","SEMIMAJOR_AXIS":"6931.212","DECAY_DATE":null,"TIME_SYSTEM":"UTC","MEAN_ELEMENT_THEORY":"SGP4","REV_AT_EPOCH":"925","INCLINATION":"43.0030","PERIOD":"95.714","MEAN_ANOMALY":"92.2639"},{"MEAN_ELEMENT_THEORY":"SGP4","TIME_SYSTEM":"UTC","DECAY_DATE":null,"SEMIMAJOR_AXIS":"6874.071","NORAD_CAT_ID":"54832","ELEMENT_SET_NO":"999","MEAN_MOTION_DOT":"-0.00995974","MEAN_MOTION":"15.23287182","MEAN_ANOMALY":"65.6446","PERIOD":"94.532","INCLINATION":"42.9973","REV_AT_EPOCH":"130","RA_OF_ASC_NODE":"20.9476","OBJECT_TYPE":"PAYLOAD","BSTAR":"-0.04472600000000","ECCENTRICITY":"0.00012790","EPHEMERIS_TYPE":"0","ARG_OF_PERICENTER":"253.1245","MEAN_MOTION_DDOT":"0.0000000000000","SITE":"AFETR","OBJECT_NAME":"STARLINK-5393","APOAPSIS":"496.815","EPOCH":"2023-02-25T22:00:00.999936","COUNTRY_CODE":"US","TLE_LINE1":"1 54832U 22177N   23056.91667824 -.00995974  00000-0 -44726-1 0  9999","FILE":"3839003","CLASSIFICATION_TYPE":"U","GP_ID":"226915371","LAUNCH_DATE":"2022-12-28","RCS_SIZE":"LARGE","OBJECT_ID":"2022-177N","CENTER_NAME":"EARTH","PERIAPSIS":"495.056","REF_FRAME":"TEME","TLE_LINE2":"2 54832  42.9973  20.9476 0001279 253.1245  65.6446 15.23287182  1301"},{"ECCENTRICITY":"0.00011800","EPHEMERIS_TYPE":"0","BSTAR":"0.00237410000000","OBJECT_TYPE":"PAYLOAD","RA_OF_ASC_NODE":"32.5383","OBJECT_NAME":"STARLINK-5391","MEAN_MOTION_DDOT":"0.0000000000000","SITE":"AFETR","ARG_OF_PERICENTER":"250.6384","APOAPSIS":"559.913","TIME_SYSTEM":"UTC","DECAY_DATE":null,"MEAN_ELEMENT_THEORY":"SGP4","MEAN_MOTION":"15.02531729","MEAN_MOTION_DOT":"0.00032010","ELEMENT_SET_NO":"999","SEMIMAJOR_AXIS":"6937.230","NORAD_CAT_ID":"54833","PERIOD":"95.838","MEAN_ANOMALY":"299.4239","REV_AT_EPOCH":"130","INCLINATION":"43.0024","RCS_SIZE":"LARGE","LAUNCH_DATE":"2022-12-28","GP_ID":"226915621","CENTER_NAME":"EARTH","OBJECT_ID":"2022-177P","REF_FRAME":"TEME","PERIAPSIS":"558.276","TLE_LINE2":"2 54833  43.0024  32.5383 0001180 250.6384 299.4239 15.02531729  1307","COUNTRY_CODE":"US","EPOCH":"2023-02-25T22:00:00.999936","TLE_LINE1":"1 54833U 22177P   23056.91667824  .00032010  00000-0  23741-2 0  9996","FILE":"3839003","CLASSIFICATION_TYPE":"U"}];
